{"type": "FeatureCollection", "features": [{"type": "Feature", "properties": {"FID": 1, "COMDISTID": 1, "COMNAME": "Miguel Angel Gabela", "ADDRESS": "3500 Pan American Drive, Miami, FL 33133", "PHONE": "(305) 250-5430", "EMAIL": "MAGabela@miamigov.com", "WEBSITE": "www.miamigov.com/district1", "SHAPE_STAr": 202164993.832, "SHAPE_STLe": 101800.061915, "Shape__Are": 23264197.787109375, "Shape__Len": 34484.645195899735}, "geometry": {"type": "Polygon", "coordinates": [[[-80.23415131200761, 25.811136988371697], [-80.233971659035, 25.811142034513605], [-80.23318649829947, 25.811164085457172], [-80.23316155784906, 25.811164786142328], [-80.23312752028032, 25.811165845026885], [-80.23213169096984, 25.811196836120086], [-80.23095845890779, 25.811218662460327], [-80.2297224900416, 25.811276773761918], [-80.22905101508042, 25.811293161043263], [-80.22805574984267, 25.81132089477204], [-80.22806005203994, 25.811395655253136], [-80.22808853258829, 25.811890585179526], [-80.22809978391042, 25.812112550639082], [-80.22810176966566, 25.81213374728539], [-80.22810183125198, 25.81213440022849], [-80.2265241887159, 25.81218834874144], [-80.2259301889316, 25.812210346518583], [-80.22402018925666, 25.812210339856055], [-80.2207021891257, 25.812325328488964], [-80.2191461889256, 25.812378323523617], [-80.21842918888956, 25.812378321008044], [-80.21724318897212, 25.812402316422006], [-80.21578618943751, 25.812394311052596], [-80.21565518941887, 25.812397310558126], [-80.21418018914217, 25.812436305690746], [-80.2117301894727, 25.81255429760698], [-80.21172019003879, 25.812383297210623], [-80.2117131901904, 25.81216229735262], [-80.21168519204453, 25.81148529672515], [-80.21167019505994, 25.81075329688013], [-80.21163319670762, 25.809931296457414], [-80.21129819726139, 25.80995129549407], [-80.21120619645508, 25.80995729540479], [-80.21041719686701, 25.809953292068094], [-80.2100091973524, 25.80999329146942], [-80.20756419739139, 25.810028282455175], [-80.20717819787455, 25.80995528122911], [-80.20695619741728, 25.809864280393537], [-80.20659619841481, 25.80963827899111], [-80.20656719809584, 25.80962227925277], [-80.20645619827108, 25.809584278518628], [-80.20629719866417, 25.809544278053245], [-80.20606419876842, 25.809543277479698], [-80.20605919981776, 25.80919227734884], [-80.20597911333357, 25.807174758206024], [-80.20595920728753, 25.806673276466064], [-80.20595920755855, 25.80641127660597], [-80.20595420810388, 25.80627027646219], [-80.20594320850476, 25.805999276687633], [-80.20593204446214, 25.805764472188343], [-80.20591021047098, 25.805305276105184], [-80.20584721498814, 25.803658276235527], [-80.20584021768708, 25.8026722762249], [-80.20574621781856, 25.802671275365576], [-80.20574554942176, 25.802639607714475], [-80.20570722302807, 25.800823275157956], [-80.20569132322986, 25.800581585398806], [-80.20564722572767, 25.799911275067398], [-80.20563822685754, 25.79957227502318], [-80.20562122890546, 25.7988802748528], [-80.20560023129002, 25.798041275362188], [-80.2055772342178, 25.797096274913283], [-80.20555458727715, 25.79616159624651], [-80.20555180879768, 25.796046944635254], [-80.20553223900515, 25.795239274558266], [-80.20552124019487, 25.794849274531032], [-80.20550324232948, 25.794124274830587], [-80.20549324318986, 25.793707274743376], [-80.20547424539411, 25.792928273884055], [-80.20536724769698, 25.792123273390747], [-80.20533724916369, 25.7915802740968], [-80.20530724979784, 25.79129827319517], [-80.20521725116788, 25.79096527330087], [-80.20509225215746, 25.790584273230525], [-80.20480125454635, 25.78992227162242], [-80.20467008031348, 25.78967978874095], [-80.20460788246069, 25.789564811223308], [-80.20435225700169, 25.789092269739644], [-80.20426525736657, 25.788879269460335], [-80.20417925782812, 25.788698269924634], [-80.20463525754161, 25.788678270858657], [-80.20555025751489, 25.788669274595815], [-80.20567225802607, 25.788669274704766], [-80.20579325782334, 25.788670274799777], [-80.20610925759868, 25.78866427581094], [-80.20679025776568, 25.788621278791947], [-80.20695125803995, 25.788616279489975], [-80.20743025771154, 25.788550280636663], [-80.20785025804908, 25.788464282037992], [-80.2084282587249, 25.788300284752893], [-80.20864625926737, 25.78823628508625], [-80.20890725890007, 25.78813428627701], [-80.20910225898842, 25.788058286459638], [-80.20983726029023, 25.78777628953309], [-80.20990326084195, 25.78773828989032], [-80.21029126129292, 25.787463291142483], [-80.210801261791, 25.787215292602774], [-80.21096826259416, 25.787131293380416], [-80.21212426367757, 25.78654929681608], [-80.21275726442332, 25.78623429914391], [-80.2133072652886, 25.78596030137353], [-80.21335626584919, 25.785936301278326], [-80.21408626631262, 25.785644303607462], [-80.21433026640142, 25.785557304365796], [-80.21482826744136, 25.785380306745175], [-80.21479426772008, 25.785245306794486], [-80.214674268761, 25.784827306315428], [-80.2145762710074, 25.78416630519389], [-80.21456127150284, 25.78402530582966], [-80.21461527355214, 25.78322630549435], [-80.21463827447293, 25.782884305634173], [-80.21468227545745, 25.782561306199458], [-80.21200227766384, 25.781626296442838], [-80.21036728030971, 25.78059729024193], [-80.20993728171217, 25.780165289223653], [-80.21048228194464, 25.780253290961706], [-80.21087628181482, 25.780305292720595], [-80.21135028138428, 25.78030529383809], [-80.2114442816876, 25.780344294210142], [-80.2116272812138, 25.7803372947415], [-80.2131962824174, 25.780221300546312], [-80.21482828236111, 25.780182306058986], [-80.21559928177281, 25.780194308784207], [-80.21635528267309, 25.78018131163004], [-80.21646128185218, 25.780129312024304], [-80.21744028249864, 25.780146315420783], [-80.21818828197121, 25.78012531783706], [-80.21860228245767, 25.78012331923753], [-80.21930428248751, 25.78009832194597], [-80.21939328288798, 25.780085321961767], [-80.21987028309856, 25.78006032415939], [-80.2202832829129, 25.780059325474255], [-80.22155728348557, 25.779977329815022], [-80.22251828280902, 25.77995933321498], [-80.2229912836825, 25.779935334616304], [-80.22336728317092, 25.779912335901287], [-80.22434128366085, 25.779909339167727], [-80.224884283267, 25.77988234156074], [-80.22555728356055, 25.779868343428234], [-80.22585328376756, 25.77984034500996], [-80.2264892841448, 25.77981234681926], [-80.22665428396452, 25.779813347580433], [-80.22723828436828, 25.779776349170454], [-80.22808928380687, 25.779756352197236], [-80.22889528417043, 25.779739354999503], [-80.22925328370381, 25.77970835644354], [-80.22961228400749, 25.779723357955476], [-80.23037728403904, 25.77968836037171], [-80.23120928473713, 25.779693363699163], [-80.23188828491026, 25.779661365402028], [-80.2325292848392, 25.779634368198312], [-80.23275728464444, 25.779619368916684], [-80.23334828433848, 25.77958937118796], [-80.2336132847825, 25.779576371730155], [-80.23442128505037, 25.779613374701338], [-80.23461728488866, 25.779600375004943], [-80.23541028491972, 25.77958237785169], [-80.23575228477651, 25.77956637970215], [-80.23640628516785, 25.77955138122011], [-80.2370402848217, 25.77953238357035], [-80.2373842846784, 25.779520384509656], [-80.23786928482639, 25.779473386237584], [-80.2383122858537, 25.779439388580307], [-80.23933828526921, 25.779464391530393], [-80.24013228536047, 25.77944339416854], [-80.24086928566973, 25.77942139733461], [-80.24132228579944, 25.779423399056387], [-80.24188928532882, 25.779392401053347], [-80.2433832863048, 25.77933140615577], [-80.24385528636458, 25.77931740713235], [-80.24465828622259, 25.779295409998575], [-80.24548128618584, 25.779270413323115], [-80.24642528653483, 25.779239416832155], [-80.24750528618128, 25.779197420098747], [-80.24805128717011, 25.77918842257422], [-80.24906328647059, 25.779143426152594], [-80.25008828668794, 25.77911142927367], [-80.25099628665407, 25.77909343152522], [-80.25116728664943, 25.779092431456384], [-80.25204228573007, 25.7790604331312], [-80.25263828524908, 25.779037435061866], [-80.25307828530569, 25.779025436063467], [-80.25401928470357, 25.77899143757123], [-80.25476428382906, 25.7789544397753], [-80.25571328321809, 25.778935441861368], [-80.25732468208284, 25.778892796525493], [-80.25843328165469, 25.778863447571734], [-80.25982928093883, 25.778828451235146], [-80.26088428021482, 25.778781453687238], [-80.26195227905521, 25.778774456155304], [-80.26238627904027, 25.778752456652818], [-80.26297727847795, 25.77872745822336], [-80.26400327776409, 25.778714460371123], [-80.2638392885491, 25.77515846008769], [-80.26581628695405, 25.775153464909483], [-80.26732628645246, 25.77513546798475], [-80.2683272856433, 25.775115470165467], [-80.26934328503043, 25.775120472241085], [-80.27047128452858, 25.775062475167623], [-80.27182528269121, 25.775069478069017], [-80.2718372815995, 25.77552847768905], [-80.27439028049938, 25.77541348419985], [-80.27542027936484, 25.77536748627831], [-80.27602727885916, 25.775358487653257], [-80.27700827818929, 25.77531048983693], [-80.27799027757233, 25.775251492331982], [-80.28003927646341, 25.775184496640062], [-80.28208927497602, 25.77507850095855], [-80.28207727671246, 25.7746405010318], [-80.28415527536563, 25.774547506003127], [-80.28572327435599, 25.774492509268715], [-80.28661727409475, 25.774443512121405], [-80.28737227324173, 25.77440851334733], [-80.28822527323493, 25.774387515519255], [-80.28914127214674, 25.774349517305602], [-80.29002227203418, 25.774342519629894], [-80.29092627110867, 25.77430452112186], [-80.2918182710274, 25.77429852388789], [-80.29269927006378, 25.774260525179052], [-80.29360326986107, 25.77425352732725], [-80.2945072685465, 25.774215530006796], [-80.29538826860372, 25.774219531266702], [-80.29629226784307, 25.774171533970815], [-80.2973022666562, 25.774154535814986], [-80.29830026627575, 25.774148538538405], [-80.29929826556776, 25.774111540547942], [-80.30034026512637, 25.774099542534564], [-80.30130326442833, 25.774080544855067], [-80.30164126433233, 25.774082545520034], [-80.30187826395255, 25.774164546045686], [-80.3023302634759, 25.773983546937785], [-80.30250226203746, 25.774478547589794], [-80.30282860947106, 25.77461863339112], [-80.30154642735684, 25.77520543499416], [-80.30149245261067, 25.77520816734533], [-80.30137110994583, 25.775244475803515], [-80.29934702104825, 25.77619408145794], [-80.29905962426263, 25.776318389635897], [-80.29846249766605, 25.776581990922185], [-80.2980409676944, 25.77677787962586], [-80.29662707308799, 25.777494225992438], [-80.2962599146213, 25.777692629789552], [-80.29597373314454, 25.777910047299777], [-80.29593865803359, 25.77792571480802], [-80.29590127372066, 25.77792841340703], [-80.2958217484795, 25.777931627484023], [-80.29576603578305, 25.777941436083797], [-80.29570071534816, 25.77796271613659], [-80.29528882968202, 25.778210923786865], [-80.29450729383336, 25.778620741130148], [-80.29355121793593, 25.779161654432325], [-80.29247138566521, 25.77977554455874], [-80.29089224002074, 25.780463117987342], [-80.29044011186778, 25.780615698603803], [-80.28966028299847, 25.78073369047659], [-80.28922263443393, 25.78080767639555], [-80.28887222584902, 25.780821189339548], [-80.2887795307423, 25.78085626050103], [-80.28869828420473, 25.78086288693239], [-80.28858323222364, 25.78087559986056], [-80.28839499722221, 25.780840816886712], [-80.28827222340918, 25.780834337321146], [-80.28789711796517, 25.780841208980018], [-80.28496392303639, 25.78025019154783], [-80.28324570652786, 25.780261939794457], [-80.28009488019484, 25.7802867888226], [-80.27934480071843, 25.78034368290571], [-80.27846420566763, 25.78058174792428], [-80.27780079169668, 25.780968965369265], [-80.27677171168406, 25.781502657799535], [-80.27631124978306, 25.78188749468872], [-80.27626709205511, 25.78192439963793], [-80.27585208508795, 25.782265913179764], [-80.27454755470002, 25.783594076048093], [-80.27432042958563, 25.783882350417155], [-80.27347447515393, 25.784826680666246], [-80.27329681845636, 25.78517581572436], [-80.27301082647388, 25.785346376806302], [-80.27260159223167, 25.785700590871677], [-80.27230068035792, 25.78609219939132], [-80.27114772060804, 25.787425247334], [-80.27055837275357, 25.78805099229642], [-80.2701549505787, 25.788479323843102], [-80.26998795238775, 25.788681681493863], [-80.26993921093312, 25.78873922596964], [-80.26869920949937, 25.79011017652867], [-80.26693487017269, 25.791737077413377], [-80.26691809524553, 25.79179058997215], [-80.26690121716456, 25.7918440117427], [-80.266877233884, 25.791899537899152], [-80.26680463038184, 25.79197378470946], [-80.26675975207854, 25.79200306454846], [-80.26658695965565, 25.792087339250184], [-80.26653361804496, 25.79213006385124], [-80.26650970084374, 25.792129117308516], [-80.26646170610175, 25.7921733726735], [-80.26600369058268, 25.79259569560302], [-80.26545404882394, 25.793140878050654], [-80.26511395974026, 25.7933666522849], [-80.2650152655027, 25.793425498778053], [-80.26488045370358, 25.793533285261443], [-80.26468809050692, 25.793572987500557], [-80.26466371129175, 25.793588380019354], [-80.26463021828486, 25.79357909835633], [-80.26455957633578, 25.79360911377674], [-80.26448235628798, 25.79361783561268], [-80.26445367056738, 25.79364502570966], [-80.26440154681666, 25.79366450501209], [-80.26434957300947, 25.793659686427006], [-80.26434729241738, 25.79365713932792], [-80.26385909175708, 25.793662714561474], [-80.25843806430852, 25.793838378947846], [-80.25612404315999, 25.793889086360544], [-80.25381751606243, 25.79390728802159], [-80.25163040999111, 25.79396999985569], [-80.2500710853732, 25.79400770822348], [-80.24797695825671, 25.79406120678545], [-80.24502066222121, 25.79414424943539], [-80.24387243686255, 25.7941730204266], [-80.24294301953778, 25.794203779887678], [-80.24268952487022, 25.79421140184835], [-80.2418806762669, 25.794235716286956], [-80.24071478414959, 25.79427075740374], [-80.24025598106499, 25.79426989956792], [-80.23984209491854, 25.79427441296101], [-80.23981888186597, 25.794274666234752], [-80.23984100900852, 25.79511617170609], [-80.23984343718635, 25.795208533100645], [-80.23984395240252, 25.79522812067253], [-80.23985354713757, 25.795586518945363], [-80.2398675766216, 25.796110549348224], [-80.23989251464155, 25.79685439406603], [-80.23989981390336, 25.797072123372462], [-80.23990017209815, 25.797256882177457], [-80.23990043441195, 25.79739179233903], [-80.23991444479414, 25.79775641210977], [-80.23991397217905, 25.797919939757094], [-80.23994601690622, 25.798911776705804], [-80.23998383018106, 25.799833141039922], [-80.24000246030795, 25.800664816678413], [-80.24002465220356, 25.801682566584333], [-80.24005755388829, 25.80259977888284], [-80.24007610005307, 25.803534110675844], [-80.24010856092362, 25.80446094994396], [-80.24013633104842, 25.8053489017788], [-80.24014849993394, 25.805793986623048], [-80.2401547926122, 25.806093167576957], [-80.24015943204071, 25.80631369357553], [-80.24017694539903, 25.80723134030266], [-80.24021502976251, 25.80814032515854], [-80.24022319377039, 25.80845335436042], [-80.24022676424012, 25.80859024307594], [-80.24022912675485, 25.80862243316782], [-80.24027825154317, 25.80862026897364], [-80.24027981362937, 25.808620199508496], [-80.24050484221772, 25.8086102843724], [-80.24214786338425, 25.808537878775855], [-80.24218195484067, 25.808536376647947], [-80.2421913991452, 25.808535960108124], [-80.24219726143521, 25.808535701816474], [-80.24222727712076, 25.808534378821932], [-80.24427749686973, 25.808470202688024], [-80.24630590678422, 25.808413763790124], [-80.24630583201348, 25.808425580935598], [-80.24835169753771, 25.808361325592475], [-80.24986780303819, 25.808325270910426], [-80.25039311076887, 25.808312775179004], [-80.25223445999065, 25.808243470389044], [-80.25426011738023, 25.80819752321606], [-80.2543585576097, 25.808195289473588], [-80.25435856214675, 25.808194564665687], [-80.25435868090051, 25.808175593291434], [-80.25648277727802, 25.80812738219464], [-80.2564848282715, 25.808097710700572], [-80.25647609287573, 25.807649376267758], [-80.25644584840957, 25.806803919090438], [-80.2565899050626, 25.806801613809014], [-80.25782075933407, 25.80678190847665], [-80.25845429518891, 25.807320238473768], [-80.25850414417727, 25.808544101551465], [-80.25850319466663, 25.808935327042356], [-80.25850300382025, 25.809014203630248], [-80.2575057246874, 25.809039098994766], [-80.25651540855502, 25.809065007011966], [-80.2565126284992, 25.809008257364763], [-80.25651237378226, 25.809003053163018], [-80.25456251170344, 25.809058103692262], [-80.25455553330715, 25.80907974695145], [-80.25243937559739, 25.80913701318399], [-80.25243268935013, 25.809112203666118], [-80.2503917988933, 25.80916982707606], [-80.24986238364912, 25.809185830917755], [-80.2483789436733, 25.809230664646904], [-80.24738455834212, 25.809250295347418], [-80.24738094129988, 25.80928124664815], [-80.24635234191945, 25.80930069314935], [-80.24635200881669, 25.809353339555614], [-80.24431893707555, 25.809369184861655], [-80.244315671922, 25.809339671909264], [-80.24334382682615, 25.80936558610225], [-80.24334659899856, 25.809467799749203], [-80.24235440290583, 25.80951244786074], [-80.24229797769416, 25.80951498631126], [-80.24229765361012, 25.809513729935368], [-80.2422899638086, 25.80948397544372], [-80.24089559978175, 25.809529631994685], [-80.24025037583381, 25.80955075404345], [-80.24025246200057, 25.80961673527275], [-80.24026709460514, 25.810014740482355], [-80.24030324701728, 25.81095879376263], [-80.23950645772057, 25.810979819787672], [-80.2382637211523, 25.811012604829255], [-80.23727411474344, 25.811047137213546], [-80.23621633670923, 25.811077006267215], [-80.23518476049888, 25.81110924133251], [-80.23415131200761, 25.811136988371697]]]}}, {"type": "Feature", "properties": {"FID": 2, "COMDISTID": 2, "COMNAME": "Damian Pardo", "ADDRESS": "3501 Pan American Drive, Miami, FL 33133", "PHONE": "(305)-250-5333", "EMAIL": "DPardo@miamigov.com", "WEBSITE": "www.miamigov.com/district2", "SHAPE_STAr": 733190671.691, "SHAPE_STLe": 176544.656141, "Shape__Are": 84322195.66015625, "Shape__Len": 59873.017880484724}, "geometry": {"type": "Polygon", "coordinates": [[[-80.15910539523853, 25.827179133133978], [-80.15900202234003, 25.826114518671115], [-80.15897649188199, 25.82549759773458], [-80.15883131560363, 25.82198950968424], [-80.15876303266239, 25.820339442449317], [-80.15876245508825, 25.82032548881186], [-80.15856319088562, 25.815510106695314], [-80.15856303838609, 25.815506425748687], [-80.15838958101145, 25.811314465113103], [-80.15986914833874, 25.811286334736415], [-80.16092112057422, 25.81126632424081], [-80.16095206671002, 25.811265735614764], [-80.16091688139574, 25.810484253402045], [-80.16086086140412, 25.808863268547245], [-80.16199097805111, 25.804603749267116], [-80.16503957737143, 25.793111615192213], [-80.1657530602091, 25.79042168887435], [-80.16698568005458, 25.786135669850125], [-80.16779960358839, 25.78330533829973], [-80.1680709044698, 25.782361886075254], [-80.16883338124936, 25.779451037618188], [-80.16891238054737, 25.779149440066377], [-80.16907828980172, 25.77851603686356], [-80.16737517590828, 25.77778575380493], [-80.16699692573691, 25.77762355874189], [-80.16672655698633, 25.77750762285136], [-80.16606671830627, 25.777224676832624], [-80.16520253291677, 25.776854097528282], [-80.16240158683753, 25.775652948684314], [-80.16018600835912, 25.774702772416024], [-80.15501852293701, 25.77248644920265], [-80.14831278059773, 25.769609977166652], [-80.14151792834211, 25.766694827814753], [-80.13900886492115, 25.765618266633375], [-80.14094306257077, 25.7653964394608], [-80.13946616332503, 25.76474606940708], [-80.13878931490825, 25.76446304656327], [-80.13862354247776, 25.76439372832533], [-80.14889697097082, 25.76415290933706], [-80.14900418822374, 25.764150392300657], [-80.14899743353054, 25.76410833378443], [-80.14873105106355, 25.76244977263163], [-80.1415827781835, 25.757126271722207], [-80.14156730231724, 25.756972252467524], [-80.14152288227926, 25.756530174824633], [-80.13578239816326, 25.752395826712746], [-80.13594531673296, 25.751978468431542], [-80.13634384046357, 25.750918931861282], [-80.13727134938706, 25.74819504836259], [-80.13862782592236, 25.744211136341487], [-80.13996713679045, 25.74027734862651], [-80.14114724014892, 25.736810945576938], [-80.1417183207692, 25.736593582677997], [-80.14209764799156, 25.73644920288211], [-80.14398371471648, 25.735743857945316], [-80.14574506216896, 25.735085125028746], [-80.14736392276451, 25.734365521204165], [-80.14736425568813, 25.734365372410437], [-80.14749894715666, 25.734326353885756], [-80.14838208583562, 25.733685687795113], [-80.14841457778246, 25.733662116410766], [-80.14868019649641, 25.733542781635766], [-80.1490946849471, 25.7333565622481], [-80.14999841758998, 25.73295053158282], [-80.14999846154006, 25.73295051739683], [-80.15132470494109, 25.732520810281997], [-80.15230574309408, 25.732185362878237], [-80.15457423998622, 25.730832480866955], [-80.15512068936106, 25.730506580721407], [-80.15530944818666, 25.730422546290743], [-80.1554857675392, 25.73034405037749], [-80.15613467817366, 25.730971416934818], [-80.15634860308386, 25.731178237105663], [-80.15845442146569, 25.733214065663454], [-80.15852622728121, 25.733283482617892], [-80.15855055255876, 25.733306999951925], [-80.15859054701848, 25.733345663082783], [-80.15888950104848, 25.733634672261594], [-80.15908245862856, 25.733821209484965], [-80.15955266266765, 25.73427576518287], [-80.15970314681432, 25.734474209845132], [-80.15976180327415, 25.73463730411209], [-80.159760526642, 25.73481888196477], [-80.15976008719939, 25.734881384337225], [-80.15964316557148, 25.73517458206757], [-80.15946157132859, 25.73545829157702], [-80.15909933347686, 25.73586304698783], [-80.15873218966334, 25.736263302271905], [-80.1583049571823, 25.736676707597887], [-80.158043208317, 25.736991678335524], [-80.15786542455326, 25.73738030097166], [-80.15786386399836, 25.737814135071073], [-80.15785776292418, 25.739510413494557], [-80.15785747158552, 25.739591482348036], [-80.15785746858883, 25.739592331723596], [-80.15785711371244, 25.73969089896652], [-80.15789715561182, 25.739672893345187], [-80.16058319906764, 25.738465045561338], [-80.16078200772183, 25.738375643602954], [-80.16204997204967, 25.737805443170497], [-80.16277398433509, 25.73747984834317], [-80.16338311970775, 25.737205911319702], [-80.16349390574821, 25.73715608850213], [-80.16375176045231, 25.73738208073119], [-80.16468455305656, 25.738199600594424], [-80.16468812299823, 25.73820272889159], [-80.16692581797973, 25.74016382304361], [-80.16770543951753, 25.73933898145457], [-80.16783625708511, 25.739200575351088], [-80.17380830861197, 25.74443389792373], [-80.1737982718996, 25.74390852069268], [-80.17379899444953, 25.74336480211374], [-80.17389373411626, 25.731023187988693], [-80.17390815917982, 25.729143427861334], [-80.17391401738125, 25.729143497182108], [-80.17603261374312, 25.729168524411424], [-80.18566394900274, 25.729281914614052], [-80.18566497823923, 25.729278286279776], [-80.18690315711937, 25.724911921463505], [-80.19116429341753, 25.709882598719652], [-80.19116919296347, 25.70988255188618], [-80.22222767090099, 25.709579577372192], [-80.2222713563526, 25.70957914607825], [-80.22430491872481, 25.709630040944397], [-80.23027161201227, 25.709779206854126], [-80.23092660061931, 25.70977919663945], [-80.23100622024026, 25.709779195113438], [-80.23217182958446, 25.709779168471968], [-80.23225269970293, 25.70977605956615], [-80.23229553915104, 25.709774412146785], [-80.2376179749712, 25.70956969221863], [-80.23829849236921, 25.709559865691727], [-80.24762334798696, 25.70942489775729], [-80.2476238841866, 25.709424875250015], [-80.24844845273569, 25.709389406706297], [-80.24844978208321, 25.709413174419513], [-80.24845443855843, 25.709496397992424], [-80.24845447890968, 25.709497112208744], [-80.25119719145926, 25.70938999335968], [-80.25125812467778, 25.709386977296457], [-80.2523655988104, 25.709332159938125], [-80.25287907993203, 25.70930674113983], [-80.25302946176731, 25.709299296592032], [-80.25317669302343, 25.70929200815797], [-80.25327664091326, 25.709287059916292], [-80.25371002710362, 25.70926560312414], [-80.2541836428706, 25.7092421537692], [-80.25418709543104, 25.709241982775048], [-80.25461148417926, 25.709220969219338], [-80.25703821973683, 25.709100785020116], [-80.26045050347703, 25.70900551581713], [-80.26100464108546, 25.70899003692336], [-80.26100347872072, 25.709042398355283], [-80.26100583417563, 25.709173070441135], [-80.26101142264658, 25.709483015033065], [-80.26101446206462, 25.70956344633097], [-80.26102088509354, 25.70973343482636], [-80.26103382430195, 25.710290639060887], [-80.26103617831191, 25.71039202680004], [-80.26103833070471, 25.710474273368217], [-80.26105629531392, 25.711160782956487], [-80.26107822798072, 25.711912265782544], [-80.261105052889, 25.712670738307587], [-80.26113444405712, 25.71338270845672], [-80.26115973018169, 25.714144525535907], [-80.26118520209168, 25.714906946460605], [-80.26120484291788, 25.71538431546929], [-80.26121108808594, 25.715633170685578], [-80.2612532815196, 25.716485180073402], [-80.26126343113754, 25.717085537870666], [-80.26127518699438, 25.717333560720917], [-80.26130582517335, 25.71821250918242], [-80.26134201071552, 25.71905391128826], [-80.26136977130821, 25.719937917042106], [-80.2614142322552, 25.72079191516597], [-80.2614487043491, 25.721480609780972], [-80.26146076744399, 25.721771108063347], [-80.26148006598116, 25.722211849244456], [-80.26149938503151, 25.722680102842347], [-80.26151716544031, 25.72290554426588], [-80.26155156188258, 25.723606791663464], [-80.26159081706314, 25.72435105304502], [-80.2616119738358, 25.72477370866072], [-80.26162171969514, 25.72485440846897], [-80.26123359772143, 25.724872789171254], [-80.25855647236371, 25.72499954478154], [-80.25857791004039, 25.725640330070554], [-80.25858314055829, 25.725890415556854], [-80.25858797683202, 25.726013008482592], [-80.25869258320012, 25.727447778995188], [-80.25864438966688, 25.72744307914948], [-80.25864462911551, 25.72744914085704], [-80.25864464292145, 25.727449485745108], [-80.2586086948764, 25.727450735368745], [-80.2577725640723, 25.727479792334695], [-80.25768237546652, 25.72748292640167], [-80.25619502920028, 25.727532731978144], [-80.25570005994425, 25.72754930301646], [-80.2556724828499, 25.72755022638724], [-80.25567275690965, 25.727559508076578], [-80.25569130193652, 25.7281865661687], [-80.25572263509864, 25.728794855450307], [-80.25574376319555, 25.729395869436388], [-80.25577018490795, 25.72995898950831], [-80.25577560807254, 25.730074578032884], [-80.25578244833765, 25.730162318492916], [-80.25581780166384, 25.730615772573763], [-80.25584214817613, 25.73091329753812], [-80.25586534728026, 25.731288053043084], [-80.25586444691754, 25.73128844651915], [-80.25509844646766, 25.73163944498413], [-80.25461344477436, 25.73196844320697], [-80.2538914428696, 25.732651441353617], [-80.25270443943715, 25.73374343806483], [-80.25194943787147, 25.73433543626007], [-80.25124943541957, 25.734857434455037], [-80.25076843474216, 25.735171433128144], [-80.24793943105254, 25.73624942363019], [-80.24591442730555, 25.736972416555727], [-80.24378942374153, 25.737773408610806], [-80.24297642246239, 25.73805240563095], [-80.2418644208069, 25.738458401831505], [-80.24114441962465, 25.738723399185726], [-80.23784141375963, 25.739930387274942], [-80.23677041225835, 25.74032538346804], [-80.23584841083373, 25.740677380730236], [-80.23538240973753, 25.74083837891386], [-80.23384140720006, 25.7413993728898], [-80.23187040432127, 25.742116366256717], [-80.22986940047986, 25.742848359258254], [-80.22581439395789, 25.744336344086378], [-80.22435339157212, 25.744858339466766], [-80.2217843870199, 25.74582233005407], [-80.22148638720098, 25.74591032879808], [-80.21999338465311, 25.746475323280368], [-80.21992438407277, 25.746501323015906], [-80.21978638382078, 25.74655332239175], [-80.21977438338509, 25.746557322764072], [-80.21975838409936, 25.74656332276], [-80.21632337829548, 25.747801310624364], [-80.21512937656547, 25.748221305930826], [-80.21437437494141, 25.74848730313109], [-80.21345437393799, 25.748801300298286], [-80.21275937264532, 25.749029298008352], [-80.21255937204084, 25.74908729727453], [-80.21241537146892, 25.74912629675705], [-80.21199837094862, 25.74922529532337], [-80.21172637091364, 25.749286294173363], [-80.21152037139211, 25.74933429329942], [-80.2113873711055, 25.74936029259665], [-80.21017336934645, 25.749617288405457], [-80.20907036783598, 25.74984428414423], [-80.20865636748688, 25.74991528264828], [-80.20845536751139, 25.7499182828329], [-80.20809436760264, 25.7499382807625], [-80.20779336743095, 25.74997028006823], [-80.20744536743237, 25.750016278578332], [-80.20716236680303, 25.75005727742346], [-80.20686036682046, 25.750111276974103], [-80.20664636697363, 25.75013727570368], [-80.20646736666552, 25.750159275629258], [-80.2060713668056, 25.750185274511768], [-80.20494136642918, 25.750262269805088], [-80.20432436554621, 25.750305268149447], [-80.20396736591734, 25.750402266870363], [-80.20363236541012, 25.750544265896362], [-80.20300336410476, 25.75096826380935], [-80.20161536100622, 25.75193025851695], [-80.20042635818724, 25.75275525435566], [-80.19983935667328, 25.75316425265416], [-80.19979035694573, 25.753198252610705], [-80.19939535574022, 25.75347325089636], [-80.1988623545495, 25.7538422493655], [-80.19880235450476, 25.753885249282725], [-80.19729535119488, 25.754933243407212], [-80.197003350966, 25.75513624300821], [-80.1969103502675, 25.75520124279791], [-80.19628934934991, 25.75563224030971], [-80.1959013481235, 25.75590223869261], [-80.19494834681893, 25.756564235494462], [-80.19485434659188, 25.756631234986436], [-80.19462334634603, 25.7567932344958], [-80.19458134585622, 25.756822234546167], [-80.19440134501102, 25.75694923384244], [-80.19400434465523, 25.757225232158596], [-80.19287834231399, 25.758008228771864], [-80.19269834080403, 25.75851922753144], [-80.19244233854697, 25.759440226650558], [-80.19218333577803, 25.760347226409216], [-80.1920873346092, 25.76078622628396], [-80.19201333379881, 25.76112222565618], [-80.191879332174, 25.761674224935774], [-80.19173133030593, 25.762262224361393], [-80.19171833062575, 25.76230522489357], [-80.19158932858615, 25.762776224141852], [-80.19153732806728, 25.762966224142513], [-80.19132232614615, 25.763749223355077], [-80.19129132568716, 25.763863222943158], [-80.19120632469772, 25.7641762233094], [-80.1911603242251, 25.764333223041564], [-80.19095232277785, 25.765055222220823], [-80.19068731973786, 25.766183221431685], [-80.19046331713875, 25.76704822061481], [-80.19024531429822, 25.767965220061416], [-80.19013031360241, 25.768430219596823], [-80.19003631237399, 25.768786218987596], [-80.19001731025473, 25.769548219005113], [-80.19002530929141, 25.769737218890775], [-80.19003430921796, 25.769926218926123], [-80.19034030875476, 25.769927220249674], [-80.19202130823523, 25.770289226109025], [-80.19242630781652, 25.77031322789043], [-80.19246930783821, 25.77030922764497], [-80.19354131054321, 25.7695722318033], [-80.19355230917267, 25.769867231136676], [-80.19354930807495, 25.770269231612946], [-80.19354530654633, 25.770896231117817], [-80.19354230666715, 25.77094523112383], [-80.19353930478181, 25.771467231689535], [-80.19353730486914, 25.771612231395967], [-80.19353030463401, 25.77165323160402], [-80.1935133046943, 25.771777231063407], [-80.19350930392027, 25.77189023155065], [-80.19351330349443, 25.771972231518866], [-80.19352230271795, 25.772196231649072], [-80.19353730237937, 25.772534231846983], [-80.19356430136148, 25.772833231821863], [-80.19359030011748, 25.773312231843178], [-80.1935922995781, 25.773365232100673], [-80.193622297689, 25.774133232271247], [-80.19365429518697, 25.775107231785103], [-80.19371429268429, 25.776066232639053], [-80.19376528948045, 25.7770342325551], [-80.19378728723153, 25.778001233104856], [-80.19379528499863, 25.778910232938067], [-80.19379628466093, 25.778945232394943], [-80.19379628414593, 25.778979232492524], [-80.19383028225771, 25.779890233023497], [-80.19381728090734, 25.78042723286741], [-80.19381628063904, 25.780462232970194], [-80.1938312789546, 25.78084323319683], [-80.19387627691212, 25.78183923284205], [-80.19577627672935, 25.78177523966262], [-80.19605427708147, 25.78176524115033], [-80.1961042759743, 25.78212124076467], [-80.19612727387397, 25.782742240819314], [-80.19616427126017, 25.783704241601757], [-80.19620126869772, 25.784673241403024], [-80.19627426344384, 25.786723242105634], [-80.19627526322257, 25.786768241971433], [-80.1962792622566, 25.786864241825022], [-80.19628126244335, 25.786919242248835], [-80.19628426228927, 25.78703124144777], [-80.19628526228064, 25.787102242114624], [-80.19628826204148, 25.78722224148751], [-80.19627726107657, 25.78751224150444], [-80.19624726024172, 25.787868242012816], [-80.19620325889824, 25.78821224204412], [-80.19616425824492, 25.788471241069747], [-80.19597525598071, 25.78930224087237], [-80.19570225235005, 25.79048223977639], [-80.19549325007188, 25.791382239280107], [-80.19543924994838, 25.79161623918867], [-80.19514124635869, 25.792906238394092], [-80.19483024200011, 25.794250236888992], [-80.19481224235886, 25.79431623723689], [-80.19473024159713, 25.794615236639757], [-80.19445423829572, 25.79562223552251], [-80.19444323812037, 25.795662235898988], [-80.19422223621716, 25.79651823518945], [-80.1941562354554, 25.79680123489056], [-80.19414023531735, 25.796872235130543], [-80.19388323186239, 25.797983234225423], [-80.19387623233746, 25.798012233587126], [-80.19367622996688, 25.798877233687705], [-80.19345322677432, 25.79984223280545], [-80.19326022409784, 25.800675232285688], [-80.19324122416174, 25.800759231894794], [-80.19314522344035, 25.80117223152248], [-80.19303022193039, 25.801665230985282], [-80.19280321947224, 25.802642230511008], [-80.19264821766558, 25.803311230218483], [-80.1926002163154, 25.803518229349404], [-80.19247621523964, 25.80405422897393], [-80.19245021504777, 25.804163228951186], [-80.19219621220435, 25.805267228305812], [-80.19155420482944, 25.80805322650697], [-80.19146320352412, 25.808424225925478], [-80.19135820217208, 25.80892222544124], [-80.1912922004867, 25.80929722525706], [-80.19120119922333, 25.80976222501122], [-80.19119219974091, 25.80978022514336], [-80.19101419691896, 25.810600224965885], [-80.19100019747995, 25.810651224147144], [-80.19083919561629, 25.811337223960816], [-80.19081919482296, 25.81142122381763], [-80.19080519468399, 25.811480224014144], [-80.1906261954704, 25.811482223390552], [-80.19059119437838, 25.811627223494437], [-80.19031019153219, 25.8128222219949], [-80.19009018881151, 25.813773221728763], [-80.18955618260588, 25.8160862192841], [-80.18836716857128, 25.821306215522977], [-80.1873901572653, 25.82549121217351], [-80.18709015347464, 25.826869211196197], [-80.18693415369962, 25.826834211270707], [-80.18685015230774, 25.827211211065894], [-80.18658315202416, 25.827594209934368], [-80.18611914956941, 25.828392208681667], [-80.18578514792402, 25.828922206839092], [-80.18554314719972, 25.82921520580503], [-80.1853491461825, 25.82960920562931], [-80.18529814555296, 25.829761205336958], [-80.18511114505931, 25.830018204910225], [-80.18460214302549, 25.830875203343485], [-80.18431414197462, 25.831354202036454], [-80.18409514077037, 25.83168020167244], [-80.1840381400533, 25.831951201229042], [-80.18403013878708, 25.832640201370886], [-80.18190213838517, 25.832723193873242], [-80.18141113834778, 25.832747191531723], [-80.18090613857723, 25.832772189962856], [-80.18078513866243, 25.832793190074174], [-80.17247514069912, 25.832976160536237], [-80.17037414063817, 25.833022152906935], [-80.16610855998248, 25.833155655073984], [-80.16369588939483, 25.833231110113122], [-80.16318695451976, 25.83324702215923], [-80.16049614170022, 25.833331118923702], [-80.15970577732402, 25.833361987252925], [-80.159660124639, 25.83289186394293], [-80.15944397952049, 25.830666006509087], [-80.15910539523853, 25.827179133133978]]]}}, {"type": "Feature", "properties": {"FID": 3, "COMDISTID": 3, "COMNAME": "Joe Carollo", "ADDRESS": "3502 Pan American Drive, Miami, FL 33133", "PHONE": "(305) 250-5380", "EMAIL": "jcarollo@miamigov.com", "WEBSITE": "www.miamigov.com/district3", "SHAPE_STAr": 122030272.226, "SHAPE_STLe": 45947.0551714, "Shape__Are": 14036119.3046875, "Shape__Len": 15581.519882060484}, "geometry": {"type": "Polygon", "coordinates": [[[-80.20993728171217, 25.780165289223653], [-80.20930028413454, 25.779525287075955], [-80.20886528426628, 25.779300285247448], [-80.20691428676194, 25.77828827865807], [-80.20648328819586, 25.77805527699885], [-80.20627628762824, 25.777977276362734], [-80.2048002890722, 25.777425270682574], [-80.20332329270133, 25.77635526562943], [-80.20151429762028, 25.774566259178034], [-80.20122429779465, 25.7741972588056], [-80.20083429920851, 25.773684256705575], [-80.2005773013564, 25.77303825650097], [-80.19979030654788, 25.771066253439432], [-80.19978430731554, 25.771048253177568], [-80.19965230764008, 25.77080325270924], [-80.1994933081846, 25.77066025215393], [-80.19930930806659, 25.7704652511488], [-80.1990263098048, 25.77017825027243], [-80.19824931113713, 25.769402247467468], [-80.19765931264199, 25.768857245522703], [-80.19750731283332, 25.768803244945115], [-80.19627331344489, 25.7687062409115], [-80.19568731269807, 25.768780238984544], [-80.19564031289794, 25.768780238299986], [-80.19497731262435, 25.76889323662137], [-80.19374431144863, 25.76933523186648], [-80.19354131054321, 25.7695722318033], [-80.19246930783821, 25.77030922764497], [-80.19242630781652, 25.77031322789043], [-80.19202130823523, 25.770289226109025], [-80.19034030875476, 25.769927220249674], [-80.19003430921796, 25.769926218926123], [-80.19002530929141, 25.769737218890775], [-80.19001731025473, 25.769548219005113], [-80.19003631237399, 25.768786218987596], [-80.19013031360241, 25.768430219596823], [-80.19024531429822, 25.767965220061416], [-80.19046331713875, 25.76704822061481], [-80.19068731973786, 25.766183221431685], [-80.19095232277785, 25.765055222220823], [-80.1911603242251, 25.764333223041564], [-80.19120632469772, 25.7641762233094], [-80.19129132568716, 25.763863222943158], [-80.19132232614615, 25.763749223355077], [-80.19153732806728, 25.762966224142513], [-80.19158932858615, 25.762776224141852], [-80.19171833062575, 25.76230522489357], [-80.19173133030593, 25.762262224361393], [-80.191879332174, 25.761674224935774], [-80.19201333379881, 25.76112222565618], [-80.1920873346092, 25.76078622628396], [-80.19218333577803, 25.760347226409216], [-80.19244233854697, 25.759440226650558], [-80.19269834080403, 25.75851922753144], [-80.19287834231399, 25.758008228771864], [-80.19400434465523, 25.757225232158596], [-80.19440134501102, 25.75694923384244], [-80.19458134585622, 25.756822234546167], [-80.19462334634603, 25.7567932344958], [-80.19485434659188, 25.756631234986436], [-80.19494834681893, 25.756564235494462], [-80.1959013481235, 25.75590223869261], [-80.19628934934991, 25.75563224030971], [-80.1969103502675, 25.75520124279791], [-80.197003350966, 25.75513624300821], [-80.19729535119488, 25.754933243407212], [-80.19880235450476, 25.753885249282725], [-80.1988623545495, 25.7538422493655], [-80.19939535574022, 25.75347325089636], [-80.19979035694573, 25.753198252610705], [-80.19983935667328, 25.75316425265416], [-80.20042635818724, 25.75275525435566], [-80.20161536100622, 25.75193025851695], [-80.20300336410476, 25.75096826380935], [-80.20363236541012, 25.750544265896362], [-80.20396736591734, 25.750402266870363], [-80.20432436554621, 25.750305268149447], [-80.20494136642918, 25.750262269805088], [-80.2060713668056, 25.750185274511768], [-80.20646736666552, 25.750159275629258], [-80.20664636697363, 25.75013727570368], [-80.20686036682046, 25.750111276974103], [-80.20716236680303, 25.75005727742346], [-80.20744536743237, 25.750016278578332], [-80.20779336743095, 25.74997028006823], [-80.20809436760264, 25.7499382807625], [-80.20845536751139, 25.7499182828329], [-80.20865636748688, 25.74991528264828], [-80.20907036783598, 25.74984428414423], [-80.21017336934645, 25.749617288405457], [-80.2113873711055, 25.74936029259665], [-80.21152037139211, 25.74933429329942], [-80.21172637091364, 25.749286294173363], [-80.21199837094862, 25.74922529532337], [-80.21241537146892, 25.74912629675705], [-80.21255937204084, 25.74908729727453], [-80.21275937264532, 25.749029298008352], [-80.21345437393799, 25.748801300298286], [-80.21437437494141, 25.74848730313109], [-80.21512937656547, 25.748221305930826], [-80.21632337829548, 25.747801310624364], [-80.21975838409936, 25.74656332276], [-80.21977438338509, 25.746557322764072], [-80.21978638382078, 25.74655332239175], [-80.21992438407277, 25.746501323015906], [-80.21999338465311, 25.746475323280368], [-80.22148638720098, 25.74591032879808], [-80.2217843870199, 25.74582233005407], [-80.22178338665385, 25.745991330153903], [-80.22178238590026, 25.746034330111556], [-80.22178138539928, 25.746220329951583], [-80.22180238320193, 25.746713330063407], [-80.22184937941225, 25.74766432929753], [-80.22187837677305, 25.74848432980698], [-80.22187837543322, 25.748850329257355], [-80.22191837371446, 25.749234329277893], [-80.22193937061348, 25.75002132905839], [-80.22198436792156, 25.750864329644962], [-80.22403036801082, 25.750811336228303], [-80.22607436898944, 25.750735343406273], [-80.2280743700509, 25.7506783504071], [-80.23013336987131, 25.750592357807367], [-80.23016436773695, 25.751421358408322], [-80.2301653659141, 25.75211335830054], [-80.23021036314354, 25.752855357876648], [-80.23023936176172, 25.753548358683695], [-80.23028635913104, 25.75439335829433], [-80.23030635657645, 25.755195358705272], [-80.2303183552244, 25.755744358768172], [-80.23034635396233, 25.756240359003186], [-80.23037435290571, 25.756631359408708], [-80.23038535005762, 25.75737735899689], [-80.2303963476779, 25.75812235927272], [-80.23043834662424, 25.758741359892547], [-80.23045434501363, 25.759035359497638], [-80.23046834430968, 25.759478360027842], [-80.23050034305263, 25.759906359642255], [-80.23049634160853, 25.760440360191527], [-80.2305203391185, 25.761273360283496], [-80.23052633710856, 25.761774360112188], [-80.23056033648005, 25.762064360297543], [-80.23057233483586, 25.76275536036935], [-80.23060633205793, 25.7636893607379], [-80.23065732865007, 25.76454236071181], [-80.23067432680375, 25.765402360617102], [-80.23069732375721, 25.766340360856557], [-80.23077432103602, 25.767195361023155], [-80.23077831868204, 25.768087361478162], [-80.23080231661943, 25.76893236153657], [-80.23082131480156, 25.769347361346036], [-80.23081931388413, 25.769579361274985], [-80.2308493132348, 25.770034361702496], [-80.23089731046952, 25.770788361683937], [-80.2309253084685, 25.77141736177447], [-80.230952306471, 25.772154361956066], [-80.23097830510905, 25.772566362044362], [-80.23096830474451, 25.772951362109346], [-80.23099730243267, 25.773732362708422], [-80.23101430034639, 25.774135362612604], [-80.23102029993672, 25.77434136217342], [-80.23101829896736, 25.774702362202408], [-80.23102929810733, 25.77503736223369], [-80.23102729744743, 25.77542336216454], [-80.23106629544175, 25.775808362852434], [-80.23106329458153, 25.776156362908345], [-80.23108829326111, 25.77654236283657], [-80.23110029193619, 25.776975362986335], [-80.23111129112657, 25.777362363054596], [-80.23112129013421, 25.777872362580553], [-80.2311192889186, 25.77809636292676], [-80.2311422871026, 25.778817363430168], [-80.23120928473713, 25.779693363699163], [-80.23037728403904, 25.77968836037171], [-80.22961228400749, 25.779723357955476], [-80.22925328370381, 25.77970835644354], [-80.22889528417043, 25.779739354999503], [-80.22808928380687, 25.779756352197236], [-80.22723828436828, 25.779776349170454], [-80.22665428396452, 25.779813347580433], [-80.2264892841448, 25.77981234681926], [-80.22585328376756, 25.77984034500996], [-80.22555728356055, 25.779868343428234], [-80.224884283267, 25.77988234156074], [-80.22434128366085, 25.779909339167727], [-80.22336728317092, 25.779912335901287], [-80.2229912836825, 25.779935334616304], [-80.22251828280902, 25.77995933321498], [-80.22155728348557, 25.779977329815022], [-80.2202832829129, 25.780059325474255], [-80.21987028309856, 25.78006032415939], [-80.21939328288798, 25.780085321961767], [-80.21930428248751, 25.78009832194597], [-80.21860228245767, 25.78012331923753], [-80.21818828197121, 25.78012531783706], [-80.21744028249864, 25.780146315420783], [-80.21646128185218, 25.780129312024304], [-80.21635528267309, 25.78018131163004], [-80.21559928177281, 25.780194308784207], [-80.21482828236111, 25.780182306058986], [-80.2131962824174, 25.780221300546312], [-80.2116272812138, 25.7803372947415], [-80.2114442816876, 25.780344294210142], [-80.21135028138428, 25.78030529383809], [-80.21087628181482, 25.780305292720595], [-80.21048228194464, 25.780253290961706], [-80.20993728171217, 25.780165289223653]]]}}, {"type": "Feature", "properties": {"FID": 4, "COMDISTID": 4, "COMNAME": "Ralph \"Rafael\" Rosado", "ADDRESS": "3503 Pan American Drive, Miami, FL 33133", "PHONE": "(305) 250-5420", "EMAIL": "rrosado@miamigov.com", "WEBSITE": "www.miamigov.com/district4", "SHAPE_STAr": 208693293.98, "SHAPE_STLe": 105923.208487, "Shape__Are": 24003736.697265625, "Shape__Len": 35901.935492743534}, "geometry": {"type": "Polygon", "coordinates": [[[-80.23120928473713, 25.779693363699163], [-80.2311422871026, 25.778817363430168], [-80.2311192889186, 25.77809636292676], [-80.23112129013421, 25.777872362580553], [-80.23111129112657, 25.777362363054596], [-80.23110029193619, 25.776975362986335], [-80.23108829326111, 25.77654236283657], [-80.23106329458153, 25.776156362908345], [-80.23106629544175, 25.775808362852434], [-80.23102729744743, 25.77542336216454], [-80.23102929810733, 25.77503736223369], [-80.23101829896736, 25.774702362202408], [-80.23102029993672, 25.77434136217342], [-80.23101430034639, 25.774135362612604], [-80.23099730243267, 25.773732362708422], [-80.23096830474451, 25.772951362109346], [-80.23097830510905, 25.772566362044362], [-80.230952306471, 25.772154361956066], [-80.2309253084685, 25.77141736177447], [-80.23089731046952, 25.770788361683937], [-80.2308493132348, 25.770034361702496], [-80.23081931388413, 25.769579361274985], [-80.23082131480156, 25.769347361346036], [-80.23080231661943, 25.76893236153657], [-80.23077831868204, 25.768087361478162], [-80.23077432103602, 25.767195361023155], [-80.23069732375721, 25.766340360856557], [-80.23067432680375, 25.765402360617102], [-80.23065732865007, 25.76454236071181], [-80.23060633205793, 25.7636893607379], [-80.23057233483586, 25.76275536036935], [-80.23056033648005, 25.762064360297543], [-80.23052633710856, 25.761774360112188], [-80.2305203391185, 25.761273360283496], [-80.23049634160853, 25.760440360191527], [-80.23050034305263, 25.759906359642255], [-80.23046834430968, 25.759478360027842], [-80.23045434501363, 25.759035359497638], [-80.23043834662424, 25.758741359892547], [-80.2303963476779, 25.75812235927272], [-80.23038535005762, 25.75737735899689], [-80.23037435290571, 25.756631359408708], [-80.23034635396233, 25.756240359003186], [-80.2303183552244, 25.755744358768172], [-80.23030635657645, 25.755195358705272], [-80.23028635913104, 25.75439335829433], [-80.23023936176172, 25.753548358683695], [-80.23021036314354, 25.752855357876648], [-80.2301653659141, 25.75211335830054], [-80.23016436773695, 25.751421358408322], [-80.23013336987131, 25.750592357807367], [-80.2280743700509, 25.7506783504071], [-80.22607436898944, 25.750735343406273], [-80.22403036801082, 25.750811336228303], [-80.22198436792156, 25.750864329644962], [-80.22193937061348, 25.75002132905839], [-80.22191837371446, 25.749234329277893], [-80.22187837543322, 25.748850329257355], [-80.22187837677305, 25.74848432980698], [-80.22184937941225, 25.74766432929753], [-80.22180238320193, 25.746713330063407], [-80.22178138539928, 25.746220329951583], [-80.22178238590026, 25.746034330111556], [-80.22178338665385, 25.745991330153903], [-80.2217843870199, 25.74582233005407], [-80.22435339157212, 25.744858339466766], [-80.22581439395789, 25.744336344086378], [-80.22986940047986, 25.742848359258254], [-80.23187040432127, 25.742116366256717], [-80.23384140720006, 25.7413993728898], [-80.23538240973753, 25.74083837891386], [-80.23584841083373, 25.740677380730236], [-80.23677041225835, 25.74032538346804], [-80.23784141375963, 25.739930387274942], [-80.24114441962465, 25.738723399185726], [-80.2418644208069, 25.738458401831505], [-80.24297642246239, 25.73805240563095], [-80.24378942374153, 25.737773408610806], [-80.24591442730555, 25.736972416555727], [-80.24793943105254, 25.73624942363019], [-80.25076843474216, 25.735171433128144], [-80.25124943541957, 25.734857434455037], [-80.25194943787147, 25.73433543626007], [-80.25270443943715, 25.73374343806483], [-80.2538914428696, 25.732651441353617], [-80.25461344477436, 25.73196844320697], [-80.25509844646766, 25.73163944498413], [-80.25586444691754, 25.73128844651915], [-80.25586534728026, 25.731288053043084], [-80.2558654360234, 25.73128948602351], [-80.25586555771108, 25.73131988384311], [-80.2559106487269, 25.732220037242573], [-80.25591067350602, 25.732220539250086], [-80.25689799024424, 25.73220991816646], [-80.25787115094958, 25.732181569396552], [-80.25791748741909, 25.732180219441652], [-80.25791785522449, 25.73218020867781], [-80.25791935217781, 25.732205716554827], [-80.25792086892622, 25.73223156754485], [-80.25792296157107, 25.732267230715564], [-80.25792481446491, 25.732298812624556], [-80.25792693957453, 25.732335025682467], [-80.25793242719072, 25.73242853800739], [-80.25794287527535, 25.732606569437678], [-80.25795612357679, 25.732832310071995], [-80.25796928351768, 25.73305655814588], [-80.25797124913653, 25.733090051564503], [-80.25797197778387, 25.733112662487894], [-80.25797289282102, 25.733141047797524], [-80.25797409286693, 25.733178264414757], [-80.25797550510238, 25.73322207607078], [-80.25797730019944, 25.73327773894258], [-80.25797842593285, 25.733312638945737], [-80.25798039055007, 25.73337358326268], [-80.25798288753158, 25.733451031884872], [-80.25798497417443, 25.733515758080255], [-80.25798831940983, 25.733619508320903], [-80.25799055648734, 25.733688898441233], [-80.25799272671914, 25.73375621389958], [-80.25801319632635, 25.7343910025812], [-80.25802844631697, 25.734863907134535], [-80.25803031238263, 25.73492178819983], [-80.25804577933822, 25.73530999601285], [-80.25804578270807, 25.73531009532303], [-80.25805353171162, 25.735504591959565], [-80.25806313798904, 25.735745709782055], [-80.2580905092814, 25.736432720924636], [-80.25810422861923, 25.73677707289043], [-80.25816542952289, 25.73854049875143], [-80.25816848732485, 25.738628610626968], [-80.25816376414659, 25.73869509027222], [-80.25719042157067, 25.738704399278106], [-80.2562474735964, 25.738734648907272], [-80.25617743496906, 25.738736895458008], [-80.25618847558415, 25.739050556736228], [-80.2562207574723, 25.7398120634013], [-80.25624381955696, 25.74051722294289], [-80.25632624159755, 25.74206653226912], [-80.25632914937532, 25.7421333784335], [-80.256340981914, 25.742405393868705], [-80.25475779594815, 25.74247874717285], [-80.25435104318062, 25.742497590877424], [-80.2543161218282, 25.74249920839041], [-80.25432156546323, 25.742551609616633], [-80.25433195528059, 25.74298585589088], [-80.25436875096698, 25.743813417014074], [-80.25438504876341, 25.744213731711586], [-80.25439918586731, 25.744564855601237], [-80.25441508877515, 25.745028619944193], [-80.25443177468446, 25.745366945365618], [-80.25444801360207, 25.745807239467023], [-80.25446248359694, 25.74613540849444], [-80.25448102733458, 25.746571501627567], [-80.25450144978939, 25.74707165811843], [-80.2545115510598, 25.74733936070572], [-80.25454010248441, 25.748058203216946], [-80.25457260183269, 25.748905173369966], [-80.25461582251863, 25.749859585204767], [-80.25463158539355, 25.750327739045947], [-80.25467365003682, 25.751577046847498], [-80.2547060304221, 25.752443275165138], [-80.25473813702045, 25.753322915520613], [-80.25472911789772, 25.75355951271682], [-80.25471088993372, 25.75403768789646], [-80.25475836105403, 25.755224091971264], [-80.25480039746228, 25.756034053208943], [-80.25479698406056, 25.756580945071153], [-80.25481162331465, 25.75673019275833], [-80.25483193291913, 25.757248746015527], [-80.25490232826566, 25.758048450818865], [-80.25491223376893, 25.758347707206838], [-80.25493044341458, 25.758837705681863], [-80.25494040212318, 25.759128450225596], [-80.25495140964658, 25.759616263459485], [-80.25496864743472, 25.759896899326993], [-80.25497775309282, 25.76032434551536], [-80.254994508638, 25.760651923524], [-80.25500547367541, 25.761024868456406], [-80.25502047894697, 25.76141984450486], [-80.25504627248141, 25.762185615269452], [-80.25507688518164, 25.76300101989114], [-80.25514042235845, 25.76468721163483], [-80.25517008320163, 25.765563741913297], [-80.25518235048611, 25.766093260427898], [-80.2552210941001, 25.766914380345277], [-80.25525197917146, 25.767473140895117], [-80.25525511058196, 25.767671337537983], [-80.2552854170606, 25.76820129121814], [-80.25531126148606, 25.76886801458342], [-80.25531984695874, 25.769165888132544], [-80.25533407303531, 25.76953386213704], [-80.25535678703906, 25.769897795020533], [-80.25536480397835, 25.77002624648361], [-80.25519343752569, 25.770067584240714], [-80.25467549888062, 25.77007437992625], [-80.25441094647016, 25.770077850475552], [-80.25444827275382, 25.771033777600934], [-80.25445669545611, 25.771273756432464], [-80.25446119996056, 25.771402113186777], [-80.25425446063318, 25.771411434518107], [-80.25421028014551, 25.7714134268531], [-80.25417062789549, 25.77141521491136], [-80.25419117382313, 25.771783044327574], [-80.25419442655289, 25.77184128698284], [-80.25419498061703, 25.77185121003908], [-80.25419504155523, 25.771852306178754], [-80.25455987046715, 25.77183541000864], [-80.25468145286366, 25.771835252834563], [-80.25468895693984, 25.77183520190255], [-80.254758426734, 25.771834728121856], [-80.25476853485884, 25.77183465892768], [-80.2547686794178, 25.7718346578626], [-80.25480070160363, 25.771834439111046], [-80.25483364796517, 25.771834214252717], [-80.25483235204781, 25.77179493655343], [-80.25482737694735, 25.771644177025152], [-80.25482681288179, 25.771627067854002], [-80.25481795584163, 25.771358665708952], [-80.25544602540691, 25.77134278367039], [-80.25544644915823, 25.77134277320108], [-80.25543870740236, 25.770995429329776], [-80.25540669027387, 25.77063943021739], [-80.25540567230901, 25.77062810837609], [-80.25552569088973, 25.770625147843095], [-80.25565218933262, 25.77062202718387], [-80.25567117626004, 25.770621559227934], [-80.25666281373567, 25.770597097019902], [-80.2575629514613, 25.770573728312808], [-80.25845647150366, 25.770550521605397], [-80.25845599774628, 25.77048190355296], [-80.25845595944598, 25.770476356517026], [-80.25845860151557, 25.7704763113062], [-80.25845886217512, 25.77028326271451], [-80.25845294616495, 25.77014601753629], [-80.25841465420845, 25.76909457728363], [-80.25838006113429, 25.76814466971802], [-80.25850944806444, 25.76814119837706], [-80.25887466675121, 25.768131399801792], [-80.25936373879397, 25.768128217955322], [-80.2593636520266, 25.768126618001048], [-80.2593629359739, 25.768113494199948], [-80.25935988596034, 25.768057527323684], [-80.25934665013145, 25.767814713133774], [-80.25933897634705, 25.767634952742625], [-80.25933468028602, 25.767534329461412], [-80.25932818484092, 25.76738219373826], [-80.25926506010912, 25.765903582979732], [-80.25920829494038, 25.76457392243295], [-80.2592163810219, 25.764573502325636], [-80.25937221236848, 25.764565401392016], [-80.259610381323, 25.764553019876764], [-80.26085202775027, 25.76451015058349], [-80.26125094180256, 25.76449584116879], [-80.26126540434842, 25.764495322423592], [-80.2613097900543, 25.764493730624704], [-80.26157358299973, 25.76449034004972], [-80.26330873464151, 25.764424073210723], [-80.26531581453138, 25.764358985993233], [-80.26700474201422, 25.764304908356955], [-80.26737841960163, 25.764281683879524], [-80.26758102193955, 25.764285196605105], [-80.26924150181466, 25.764224759381452], [-80.26944199431927, 25.76423161231048], [-80.26982067125283, 25.764229127233733], [-80.27064788501966, 25.764196819553298], [-80.27082814504173, 25.7641895544717], [-80.27146385951625, 25.764170297450462], [-80.27259826729784, 25.76411733293997], [-80.27331509435994, 25.764093916497323], [-80.27351315291486, 25.76409516328735], [-80.27406173464608, 25.764070558549523], [-80.27480845675358, 25.76403369876563], [-80.27561491220546, 25.76401071657833], [-80.2762869239296, 25.763986976695325], [-80.2770484563455, 25.763950264784278], [-80.27776528163155, 25.763926739726003], [-80.27828787121254, 25.763929331710116], [-80.27925869317382, 25.763889346359903], [-80.27966178597374, 25.763868557572554], [-80.28066493739084, 25.763820727924287], [-80.2808598448389, 25.763809051891357], [-80.28175079195806, 25.763788258381798], [-80.28227979887627, 25.76376567616845], [-80.28307340542476, 25.763731756382512], [-80.28379724420462, 25.763710128096708], [-80.28562331824595, 25.763647308871484], [-80.28582463310259, 25.763643911576413], [-80.28672085300379, 25.763598438263855], [-80.28785210922273, 25.763562793110147], [-80.28996290531609, 25.763488931095786], [-80.2905294002323, 25.76348498735991], [-80.29127047610312, 25.763470455676035], [-80.2919047268219, 25.7634407837652], [-80.29265040369994, 25.76341887370538], [-80.29322399480637, 25.763403002679972], [-80.29332866400479, 25.76339723462744], [-80.29388935695438, 25.763378804297666], [-80.29410810912955, 25.763380811253963], [-80.29426047977056, 25.763368910959763], [-80.29499002983381, 25.763344330894483], [-80.29587842799398, 25.763311503421388], [-80.29690197709232, 25.7633057741626], [-80.29788157258449, 25.76325762521469], [-80.29804184400463, 25.76325839817633], [-80.29963551315686, 25.76322059197769], [-80.29989975286863, 25.763205355139036], [-80.3008888204173, 25.763193342599674], [-80.3019025154898, 25.763159086934262], [-80.30287040607035, 25.76313131164991], [-80.30390099092088, 25.763098756757667], [-80.30586729520435, 25.7630285619016], [-80.30586761224495, 25.763028554386754], [-80.30586818854215, 25.763028533665512], [-80.30588666007824, 25.763028364485614], [-80.30667093622537, 25.763021182525243], [-80.30743400675627, 25.762979245705107], [-80.30854661650707, 25.762948338012986], [-80.30981411761091, 25.762896059008288], [-80.31021080621456, 25.762897939307404], [-80.31102743811343, 25.762853829999287], [-80.3118602829043, 25.762830170444104], [-80.31382278616886, 25.762782688367786], [-80.31468541746897, 25.762763795450258], [-80.31573184247488, 25.762716615265408], [-80.31661104374224, 25.762689018495834], [-80.31748858583549, 25.762652725871884], [-80.31776439387576, 25.762639951592956], [-80.31824382520544, 25.762617746295557], [-80.31906925792217, 25.76249487615929], [-80.31957803691117, 25.762486423180206], [-80.3197159253006, 25.7624841321597], [-80.31975998593953, 25.762483400188543], [-80.31978795975543, 25.762481053986416], [-80.31981454198375, 25.762729909176425], [-80.31957314630371, 25.76273702869945], [-80.31922637732907, 25.76274725580519], [-80.31882784734718, 25.762772292766115], [-80.31867327041707, 25.762817199198494], [-80.31860270032763, 25.762837700640475], [-80.31857723889604, 25.762855161806435], [-80.31845431698352, 25.762939459649456], [-80.31836190811255, 25.763067270732687], [-80.31834882752091, 25.763086987826647], [-80.31834772649628, 25.76308864718955], [-80.3182919562419, 25.76317270689351], [-80.31804717072865, 25.76400483782326], [-80.31802666911159, 25.764035419823674], [-80.31780152813663, 25.764712832096272], [-80.31771710627255, 25.764948538031856], [-80.31765315852469, 25.765127080100324], [-80.31761722107466, 25.765227416389077], [-80.31754815513116, 25.765420248899776], [-80.3174796701279, 25.76558031096128], [-80.31718164170796, 25.766276847157997], [-80.31708824478082, 25.766442656759352], [-80.31701551346107, 25.766571779590524], [-80.31695752048638, 25.766641044396227], [-80.31690688887929, 25.76672781393871], [-80.31678138680108, 25.766907885524823], [-80.31643928939317, 25.76739872734003], [-80.31585867426047, 25.768111893401617], [-80.31543322546976, 25.768509031305], [-80.31472462782567, 25.76908577896929], [-80.3140816525941, 25.769492532615573], [-80.31339765439613, 25.769877801328402], [-80.31333851403929, 25.769941385031448], [-80.31313648139056, 25.770323604365842], [-80.31280702461297, 25.770651588968516], [-80.31270549226136, 25.7707526693545], [-80.31256034289584, 25.77089717309526], [-80.31254726577743, 25.77090437507626], [-80.31252000107331, 25.77089765321473], [-80.31251722562187, 25.77089696942326], [-80.31250124886213, 25.770897876954084], [-80.31247702701192, 25.770912215111633], [-80.31244193067154, 25.77091204930877], [-80.31241390671951, 25.770902836996154], [-80.3121572899615, 25.77093631382011], [-80.31204592669717, 25.77088256897692], [-80.31171787061929, 25.770694753698134], [-80.31160044694438, 25.77067291075448], [-80.31148871668994, 25.77068302554832], [-80.31012149729166, 25.77131959004315], [-80.30994022066395, 25.77140397021684], [-80.30969904623797, 25.77151622922097], [-80.30960189220849, 25.77156145135257], [-80.30960230127631, 25.771588787805918], [-80.30960280807543, 25.771622665436013], [-80.30964012382005, 25.774115155277705], [-80.30962590198702, 25.774260471944604], [-80.30959794997317, 25.774466301316092], [-80.30954344700189, 25.774635657088616], [-80.30947528274487, 25.77485341028522], [-80.30934929973832, 25.775182504453408], [-80.30934854864181, 25.775184466892693], [-80.30845629480069, 25.777515161957627], [-80.30837551854566, 25.77759958607525], [-80.30834135356554, 25.777285610559687], [-80.30834130813575, 25.777285192410076], [-80.30833331647818, 25.777305650323214], [-80.30830381282752, 25.774978404483907], [-80.3083037273758, 25.774971649437017], [-80.30829171829859, 25.77402439181801], [-80.30827506434639, 25.772710741921113], [-80.30827441355684, 25.772680099667127], [-80.3082709152198, 25.772515392696324], [-80.30826453463959, 25.77221504117105], [-80.30826295117474, 25.77214047530943], [-80.3079869323235, 25.77225770736868], [-80.30349704772567, 25.774312709666898], [-80.30334624439222, 25.774381728549944], [-80.30282860947106, 25.77461863339112], [-80.30278726114646, 25.774606548105126], [-80.30253426174322, 25.77449254783302], [-80.30250226203746, 25.774478547589794], [-80.3023302634759, 25.773983546937785], [-80.30187826395255, 25.774164546045686], [-80.30164126433233, 25.774082545520034], [-80.30130326442833, 25.774080544855067], [-80.30034026512637, 25.774099542534564], [-80.29929826556776, 25.774111540547942], [-80.29830026627575, 25.774148538538405], [-80.2973022666562, 25.774154535814986], [-80.29629226784307, 25.774171533970815], [-80.29538826860372, 25.774219531266702], [-80.2945072685465, 25.774215530006796], [-80.29360326986107, 25.77425352732725], [-80.29269927006378, 25.774260525179052], [-80.2918182710274, 25.77429852388789], [-80.29092627110867, 25.77430452112186], [-80.29002227203418, 25.774342519629894], [-80.28914127214674, 25.774349517305602], [-80.28822527323493, 25.774387515519255], [-80.28737227324173, 25.77440851334733], [-80.28661727409475, 25.774443512121405], [-80.28572327435599, 25.774492509268715], [-80.28415527536563, 25.774547506003127], [-80.28207727671246, 25.7746405010318], [-80.28208927497602, 25.77507850095855], [-80.28003927646341, 25.775184496640062], [-80.27799027757233, 25.775251492331982], [-80.27700827818929, 25.77531048983693], [-80.27602727885916, 25.775358487653257], [-80.27542027936484, 25.77536748627831], [-80.27439028049938, 25.77541348419985], [-80.2718372815995, 25.77552847768905], [-80.27182528269121, 25.775069478069017], [-80.27047128452858, 25.775062475167623], [-80.26934328503043, 25.775120472241085], [-80.2683272856433, 25.775115470165467], [-80.26732628645246, 25.77513546798475], [-80.26581628695405, 25.775153464909483], [-80.2638392885491, 25.77515846008769], [-80.26387528605017, 25.77588645997335], [-80.26388828616325, 25.776071459849998], [-80.26391228482443, 25.776577460339173], [-80.26393728362069, 25.776935460450748], [-80.26394828198092, 25.77726846008487], [-80.2639722807319, 25.77778646043988], [-80.2639852798574, 25.77798346020995], [-80.26400327776409, 25.778714460371123], [-80.26297727847795, 25.77872745822336], [-80.26238627904027, 25.778752456652818], [-80.26195227905521, 25.778774456155304], [-80.26088428021482, 25.778781453687238], [-80.25982928093883, 25.778828451235146], [-80.25843328165469, 25.778863447571734], [-80.25571328321809, 25.778935441861368], [-80.25476428382906, 25.7789544397753], [-80.25401928470357, 25.77899143757123], [-80.25307828530569, 25.779025436063467], [-80.25263828524908, 25.779037435061866], [-80.25204228573007, 25.7790604331312], [-80.25116728664943, 25.779092431456384], [-80.25099628665407, 25.77909343152522], [-80.25008828668794, 25.77911142927367], [-80.24906328647059, 25.779143426152594], [-80.24805128717011, 25.77918842257422], [-80.24750528618128, 25.779197420098747], [-80.24642528653483, 25.779239416832155], [-80.24548128618584, 25.779270413323115], [-80.24465828622259, 25.779295409998575], [-80.24385528636458, 25.77931740713235], [-80.2433832863048, 25.77933140615577], [-80.24188928532882, 25.779392401053347], [-80.24132228579944, 25.779423399056387], [-80.24086928566973, 25.77942139733461], [-80.24013228536047, 25.77944339416854], [-80.23933828526921, 25.779464391530393], [-80.2383122858537, 25.779439388580307], [-80.23786928482639, 25.779473386237584], [-80.2373842846784, 25.779520384509656], [-80.2370402848217, 25.77953238357035], [-80.23640628516785, 25.77955138122011], [-80.23575228477651, 25.77956637970215], [-80.23541028491972, 25.77958237785169], [-80.23461728488866, 25.779600375004943], [-80.23442128505037, 25.779613374701338], [-80.2336132847825, 25.779576371730155], [-80.23334828433848, 25.77958937118796], [-80.23275728464444, 25.779619368916684], [-80.2325292848392, 25.779634368198312], [-80.23188828491026, 25.779661365402028], [-80.23120928473713, 25.779693363699163]]]}}, {"type": "Feature", "properties": {"FID": 5, "COMDISTID": 5, "COMNAME": "Christine King", "ADDRESS": "3504 Pan American Drive, Miami, FL 33133", "PHONE": "(305) 250-5390", "EMAIL": "cking@miamigov.com", "WEBSITE": "www.miamigov.com/district5", "SHAPE_STAr": 293376933.427, "SHAPE_STLe": 110026.756907, "Shape__Are": 33778534.734375, "Shape__Len": 37343.72414526895}, "geometry": {"type": "Polygon", "coordinates": [[[-80.22810459675654, 25.812163920741746], [-80.22810571694107, 25.81217587958328], [-80.22812236788016, 25.81235361135315], [-80.22812749821848, 25.81245647391376], [-80.22812814561624, 25.812665862390904], [-80.22812816649308, 25.81267248885618], [-80.22813153085396, 25.812738862334538], [-80.22814164507244, 25.8129384170529], [-80.22814647548154, 25.813033706584157], [-80.22812833949477, 25.81319387309316], [-80.22816337664561, 25.813943439162703], [-80.22820626198471, 25.814366270417302], [-80.2282383752543, 25.814682900947037], [-80.2282660868313, 25.815342827336725], [-80.22827013963612, 25.81543932857706], [-80.22827181157767, 25.81546571739381], [-80.22831753574955, 25.816187584389354], [-80.22834951483931, 25.816910825285646], [-80.22838132247198, 25.817660718636187], [-80.22840576416507, 25.818403866121347], [-80.22843883481168, 25.819105446303713], [-80.22845130419317, 25.819878450204236], [-80.22849611850552, 25.82064423213292], [-80.2285079775879, 25.821364786919858], [-80.22853626990927, 25.822100388475864], [-80.22856484789087, 25.822821030972555], [-80.22859443775529, 25.823502989436058], [-80.22862286176674, 25.824298249341535], [-80.22862290475659, 25.82429946453493], [-80.22866917312687, 25.82507402926996], [-80.22866918302704, 25.825074194507234], [-80.2286692098935, 25.825074973635648], [-80.22869423733702, 25.825811154145416], [-80.22872219245808, 25.82654022010223], [-80.22874704111081, 25.82725018119378], [-80.22877011288227, 25.82789976727738], [-80.2287717872391, 25.827946901628255], [-80.22678177642705, 25.828025570504856], [-80.22534560044654, 25.828083342187895], [-80.2253155274501, 25.828084113390144], [-80.2252957750556, 25.828084620074705], [-80.22516000615238, 25.82808810158065], [-80.22516008829156, 25.828090345098502], [-80.22522737306636, 25.829933735423037], [-80.22522738668526, 25.82993409474941], [-80.22544266085406, 25.829925423506488], [-80.2254656269184, 25.829924187449034], [-80.22560584879994, 25.829916642239517], [-80.2257652053864, 25.829908067840165], [-80.22580270711211, 25.83083394365114], [-80.22535645854653, 25.83085125998597], [-80.22539485461247, 25.83163927374591], [-80.22535620664688, 25.831636880576415], [-80.22531050685511, 25.83163405082613], [-80.2253078378666, 25.831633885852867], [-80.22530821423233, 25.83164363825709], [-80.22538232205711, 25.83356441372609], [-80.22543978839957, 25.83476612809293], [-80.22551506918751, 25.8365745502393], [-80.22561822810864, 25.839115780746578], [-80.22554791333029, 25.839114867000976], [-80.22548930089016, 25.83911410588206], [-80.22472682869598, 25.839140312317518], [-80.2243254789855, 25.83915410501891], [-80.22358248843568, 25.839185902971337], [-80.2231873660407, 25.839197202911212], [-80.22278709031664, 25.839211913283716], [-80.22110791606399, 25.839266713632874], [-80.2190513075312, 25.839330127897643], [-80.21719723782948, 25.839396324166316], [-80.2169953910271, 25.83940349005711], [-80.21495526811717, 25.839473296939474], [-80.21293894110362, 25.83953632590207], [-80.21149801299079, 25.839586709286028], [-80.21089538253119, 25.839607776588064], [-80.20948915297413, 25.839655797487858], [-80.20953392269519, 25.840833455694472], [-80.20956621411237, 25.84201234742267], [-80.20959534491882, 25.842694846138556], [-80.20962323393545, 25.843428246246], [-80.20966276284264, 25.844152382603628], [-80.20969123371309, 25.84474786719038], [-80.20971815336695, 25.84560772851085], [-80.2097357322869, 25.846346466428148], [-80.20974421581845, 25.84753309608844], [-80.20962317259543, 25.847537415452152], [-80.20956902279177, 25.847540321510827], [-80.20957229164297, 25.847617318533146], [-80.20914194735556, 25.84762308769131], [-80.2090311014467, 25.84762552321293], [-80.20902986074896, 25.84761229002353], [-80.20902796521173, 25.847592076737563], [-80.20901109055674, 25.847592417194885], [-80.20701261475476, 25.84763274891529], [-80.20517525525318, 25.847674367355257], [-80.20506776790218, 25.847676817327653], [-80.2050667118033, 25.84763126238903], [-80.20506516197551, 25.847564361759947], [-80.20342588439134, 25.847616158882797], [-80.20169047676698, 25.847679564955104], [-80.20169044800052, 25.847682363890666], [-80.20168960491931, 25.847763662952882], [-80.20169074943236, 25.847794369912844], [-80.20111920500896, 25.847798470676377], [-80.20103237789645, 25.847799093335407], [-80.20100599608526, 25.847799220788815], [-80.20047624099806, 25.847801784264835], [-80.19895460314332, 25.847822054295428], [-80.19895563089148, 25.847868064010182], [-80.19883611528999, 25.847872394527883], [-80.19883413777609, 25.847832773888516], [-80.198417200778, 25.8478418058244], [-80.19841880371177, 25.847876745104355], [-80.19797570144898, 25.847889268990723], [-80.19696363291054, 25.84792260437638], [-80.19692947051449, 25.84792372881022], [-80.19695194626006, 25.84859177083407], [-80.19698006115456, 25.849690536619857], [-80.19701205240591, 25.850609461579356], [-80.19702829898895, 25.851130226477444], [-80.19705879605442, 25.85182010052414], [-80.19707977664098, 25.85231527095132], [-80.19708734202133, 25.852545729966934], [-80.19709604564359, 25.85293689515598], [-80.19709639455608, 25.852952587693753], [-80.197095602334, 25.85295260858715], [-80.1965382917583, 25.852967490233016], [-80.19505001839595, 25.853017167240935], [-80.19483641159042, 25.853051379086466], [-80.19461543057896, 25.85312416287483], [-80.19443358892809, 25.85319394555256], [-80.19416266912586, 25.853288976070623], [-80.19398806939036, 25.853339491791886], [-80.19377077455, 25.853392988156916], [-80.1936033525155, 25.85343388952306], [-80.19343957395641, 25.853461940182598], [-80.1932368084414, 25.85347046746815], [-80.19304186013483, 25.853480002836744], [-80.19304162902795, 25.853515812003756], [-80.19304135761948, 25.853557999003424], [-80.19304096495007, 25.85361878423349], [-80.19293063877069, 25.853628176819704], [-80.19257540136441, 25.853661263132054], [-80.19252662032476, 25.8536697763607], [-80.19238316552548, 25.853692916547054], [-80.19229567754363, 25.853708547451173], [-80.19224384854459, 25.85371328593792], [-80.19219161355637, 25.853715230281136], [-80.192169141724, 25.853715105259884], [-80.19214025852531, 25.85371349221607], [-80.19210911193197, 25.853710391659014], [-80.19205605257022, 25.853703582977687], [-80.19200155059688, 25.853692386639292], [-80.19197380158026, 25.853685649266918], [-80.19195618153246, 25.853681780884312], [-80.19189256348974, 25.853667815021748], [-80.19184108969465, 25.853653028526466], [-80.19176865422227, 25.853644752520093], [-80.19174118888705, 25.85363884530645], [-80.19154658564285, 25.853608445072293], [-80.19151674415271, 25.853606633404436], [-80.19142509015835, 25.853602031376703], [-80.19137053990102, 25.853598096274098], [-80.19132769613415, 25.853592284769686], [-80.19128955310205, 25.853586752173214], [-80.1912270220299, 25.853576237452447], [-80.1911725300892, 25.853563587610314], [-80.19112327663038, 25.853550917284934], [-80.19102591091361, 25.85352573368354], [-80.19093416833441, 25.853501180702843], [-80.19084324477728, 25.85347751230289], [-80.19075621017578, 25.85344676174341], [-80.19065461722508, 25.8534089227914], [-80.1905961627308, 25.853388988908954], [-80.19055189141196, 25.853370302988743], [-80.19048287611278, 25.853335778586484], [-80.19043007943192, 25.853310066789685], [-80.19034053770874, 25.85326531740425], [-80.19026128734667, 25.85322815247096], [-80.19020526581697, 25.853204601583023], [-80.19016124807197, 25.853186200388766], [-80.1901311961693, 25.85317370722825], [-80.19008920971109, 25.85315747555413], [-80.19005503961424, 25.853154380261316], [-80.19002375940964, 25.85315130108094], [-80.18998760190559, 25.853146921061008], [-80.1899571997287, 25.85314294141652], [-80.18990587964127, 25.853136119092575], [-80.18984255582411, 25.85312414610822], [-80.18977202264098, 25.85310995479849], [-80.18974625679029, 25.853102236971875], [-80.18967668495165, 25.85308473107092], [-80.18963183460751, 25.853070683017364], [-80.18959248179789, 25.853057535777968], [-80.18956573446434, 25.853054337375866], [-80.18953699483298, 25.85305130386356], [-80.18947210564853, 25.853048731100433], [-80.18942152428914, 25.853051353440943], [-80.18936607726019, 25.85306121124085], [-80.18932574152574, 25.853071081175738], [-80.1892784579026, 25.853081055826717], [-80.18922459708733, 25.85309382712355], [-80.18916509727786, 25.85310947160654], [-80.18915300794643, 25.85311321865365], [-80.18904301536641, 25.85314481328701], [-80.18904119249991, 25.853145000784426], [-80.18900611598211, 25.853156039133506], [-80.18897624118502, 25.85316235051867], [-80.18895354686741, 25.853165463333337], [-80.18892728172382, 25.853167475738715], [-80.18890639273553, 25.853168438613086], [-80.18889953818721, 25.853167875890136], [-80.18887142705161, 25.853165569673777], [-80.188868012194, 25.853165880963978], [-80.18881993415465, 25.853160397832493], [-80.18878657861588, 25.853152113905217], [-80.18875563231451, 25.853140603856517], [-80.18872887279423, 25.85312749785771], [-80.18869025064677, 25.85310406797421], [-80.18864928659961, 25.853074146748988], [-80.18861368498123, 25.853045335937296], [-80.18858761883288, 25.85301819683581], [-80.18855923089824, 25.852981327837266], [-80.18853091030302, 25.852934742292156], [-80.18851271064224, 25.852891451975477], [-80.18849811497199, 25.85284440334789], [-80.1884841942345, 25.85278602043199], [-80.18846321880645, 25.852712266749055], [-80.18845562184579, 25.85268207431452], [-80.1884417264706, 25.852626849872472], [-80.18842907289036, 25.852602780665194], [-80.1883822837342, 25.852552765639185], [-80.18833054349088, 25.852519282753438], [-80.18821515377591, 25.852444608600106], [-80.18806125120291, 25.852401711275334], [-80.18799634920597, 25.852343820409878], [-80.18794748337447, 25.85230023216402], [-80.18791290657303, 25.85226939056063], [-80.1878985787141, 25.85223371031539], [-80.1878742879651, 25.852173221256212], [-80.18785414644178, 25.85212159765933], [-80.18784686494998, 25.85210293457153], [-80.18784643259603, 25.852101825517003], [-80.18783954816568, 25.852084181022043], [-80.18784004682752, 25.852070618939937], [-80.1878400604149, 25.852070236296598], [-80.18784437370412, 25.851952716857486], [-80.18789215112587, 25.851761168589338], [-80.18791928467704, 25.851645707513228], [-80.18793138786653, 25.851594202869705], [-80.18794904842953, 25.851518465439895], [-80.18796472228678, 25.851454780679212], [-80.18735061181779, 25.851467470841435], [-80.18733377446165, 25.85146781890565], [-80.18724269251564, 25.85146970022971], [-80.18708551026863, 25.85146886370218], [-80.18685188011901, 25.85146761878818], [-80.1853757816334, 25.851507172659183], [-80.18537584108346, 25.851508250744338], [-80.1854010988579, 25.851962737846417], [-80.1854192342698, 25.852289076958343], [-80.18544380118294, 25.852731156967508], [-80.1854440880134, 25.852736321673945], [-80.18549889101651, 25.853722475546636], [-80.18551849248048, 25.854683592097714], [-80.18552661692998, 25.85508193983589], [-80.1855284246561, 25.85517059635965], [-80.18546178878805, 25.855172369928543], [-80.1854446698444, 25.85517282540333], [-80.18544451319016, 25.855172829940358], [-80.18544428669414, 25.855172835890777], [-80.18543804756831, 25.855173001274537], [-80.18539885569258, 25.855174044189855], [-80.18534916815251, 25.85517536579356], [-80.18533559233528, 25.855175726499834], [-80.18533542271268, 25.855175730963943], [-80.18521817635721, 25.855178849708526], [-80.18521790894887, 25.85517885723426], [-80.18505246173484, 25.85518325879244], [-80.18491255574048, 25.855186980339262], [-80.18490596638921, 25.855187155468343], [-80.1848908822141, 25.85518751398384], [-80.18483887085063, 25.855188749253106], [-80.18471080803845, 25.855191789710457], [-80.18443157721401, 25.855198419288566], [-80.18431445585048, 25.855201200417376], [-80.18392185342678, 25.85521238043097], [-80.18307293922193, 25.85523655057504], [-80.18171780516961, 25.855275123045214], [-80.18082952141074, 25.855300400392622], [-80.18021219978206, 25.855320448902315], [-80.17974242027742, 25.855335704041146], [-80.17930601389367, 25.85534886713783], [-80.17909423806545, 25.855355253908865], [-80.17907856504836, 25.855357379466565], [-80.17831072335433, 25.855377669081022], [-80.178310239961, 25.85544557722385], [-80.17831015180437, 25.855458330098298], [-80.17818901886265, 25.85545735026353], [-80.17785400322052, 25.85545464037619], [-80.17785382167047, 25.85545463844551], [-80.17772889009379, 25.85545362769104], [-80.177725939021, 25.855453363655478], [-80.17740441130744, 25.855424660029755], [-80.17725101813218, 25.855426256905677], [-80.17681875348457, 25.855430757119226], [-80.1767055864716, 25.855431935188054], [-80.17636044560025, 25.855435526233112], [-80.17621249131432, 25.85544158932876], [-80.17613187325259, 25.855444892291125], [-80.17594340585762, 25.855452613542045], [-80.17560050912031, 25.85546115655404], [-80.17179027278877, 25.85558683681657], [-80.17165746653252, 25.85559121520726], [-80.17164509957485, 25.85559417751249], [-80.17143447348305, 25.855644630004377], [-80.17099767811276, 25.8557492571504], [-80.1653983232167, 25.855781770353737], [-80.16111298490496, 25.855806506694954], [-80.16067335944098, 25.845864654204483], [-80.16049294332043, 25.841784327874265], [-80.1604672303655, 25.84120277978521], [-80.15970577732402, 25.833361987252925], [-80.16049614170022, 25.833331118923702], [-80.16318695451976, 25.83324702215923], [-80.16369588939483, 25.833231110113122], [-80.16610855998248, 25.833155655073984], [-80.17037414063817, 25.833022152906935], [-80.17247514069912, 25.832976160536237], [-80.18078513866243, 25.832793190074174], [-80.18090613857723, 25.832772189962856], [-80.18141113834778, 25.832747191531723], [-80.18190213838517, 25.832723193873242], [-80.18403013878708, 25.832640201370886], [-80.1840381400533, 25.831951201229042], [-80.18409514077037, 25.83168020167244], [-80.18431414197462, 25.831354202036454], [-80.18460214302549, 25.830875203343485], [-80.18511114505931, 25.830018204910225], [-80.18529814555296, 25.829761205336958], [-80.1853491461825, 25.82960920562931], [-80.18554314719972, 25.82921520580503], [-80.18578514792402, 25.828922206839092], [-80.18611914956941, 25.828392208681667], [-80.18658315202416, 25.827594209934368], [-80.18685015230774, 25.827211211065894], [-80.18693415369962, 25.826834211270707], [-80.18709015347464, 25.826869211196197], [-80.1873901572653, 25.82549121217351], [-80.18836716857128, 25.821306215522977], [-80.18955618260588, 25.8160862192841], [-80.19009018881151, 25.813773221728763], [-80.19031019153219, 25.8128222219949], [-80.19059119437838, 25.811627223494437], [-80.1906261954704, 25.811482223390552], [-80.19080519468399, 25.811480224014144], [-80.19081919482296, 25.81142122381763], [-80.19083919561629, 25.811337223960816], [-80.19100019747995, 25.810651224147144], [-80.19101419691896, 25.810600224965885], [-80.19119219974091, 25.80978022514336], [-80.19120119922333, 25.80976222501122], [-80.1912922004867, 25.80929722525706], [-80.19135820217208, 25.80892222544124], [-80.19146320352412, 25.808424225925478], [-80.19155420482944, 25.80805322650697], [-80.19219621220435, 25.805267228305812], [-80.19245021504777, 25.804163228951186], [-80.19247621523964, 25.80405422897393], [-80.1926002163154, 25.803518229349404], [-80.19264821766558, 25.803311230218483], [-80.19280321947224, 25.802642230511008], [-80.19303022193039, 25.801665230985282], [-80.19314522344035, 25.80117223152248], [-80.19324122416174, 25.800759231894794], [-80.19326022409784, 25.800675232285688], [-80.19345322677432, 25.79984223280545], [-80.19367622996688, 25.798877233687705], [-80.19387623233746, 25.798012233587126], [-80.19388323186239, 25.797983234225423], [-80.19414023531735, 25.796872235130543], [-80.1941562354554, 25.79680123489056], [-80.19422223621716, 25.79651823518945], [-80.19444323812037, 25.795662235898988], [-80.19445423829572, 25.79562223552251], [-80.19473024159713, 25.794615236639757], [-80.19481224235886, 25.79431623723689], [-80.19483024200011, 25.794250236888992], [-80.19514124635869, 25.792906238394092], [-80.19543924994838, 25.79161623918867], [-80.19549325007188, 25.791382239280107], [-80.19570225235005, 25.79048223977639], [-80.19597525598071, 25.78930224087237], [-80.19616425824492, 25.788471241069747], [-80.19620325889824, 25.78821224204412], [-80.19624726024172, 25.787868242012816], [-80.19627726107657, 25.78751224150444], [-80.19628826204148, 25.78722224148751], [-80.19628526228064, 25.787102242114624], [-80.19628426228927, 25.78703124144777], [-80.19628126244335, 25.786919242248835], [-80.1962792622566, 25.786864241825022], [-80.19627526322257, 25.786768241971433], [-80.19627426344384, 25.786723242105634], [-80.19620126869772, 25.784673241403024], [-80.19616427126017, 25.783704241601757], [-80.19612727387397, 25.782742240819314], [-80.1961042759743, 25.78212124076467], [-80.19605427708147, 25.78176524115033], [-80.19577627672935, 25.78177523966262], [-80.19387627691212, 25.78183923284205], [-80.1938312789546, 25.78084323319683], [-80.19381628063904, 25.780462232970194], [-80.19381728090734, 25.78042723286741], [-80.19383028225771, 25.779890233023497], [-80.19379628414593, 25.778979232492524], [-80.19379628466093, 25.778945232394943], [-80.19379528499863, 25.778910232938067], [-80.19378728723153, 25.778001233104856], [-80.19376528948045, 25.7770342325551], [-80.19371429268429, 25.776066232639053], [-80.19365429518697, 25.775107231785103], [-80.193622297689, 25.774133232271247], [-80.1935922995781, 25.773365232100673], [-80.19359030011748, 25.773312231843178], [-80.19356430136148, 25.772833231821863], [-80.19353730237937, 25.772534231846983], [-80.19352230271795, 25.772196231649072], [-80.19351330349443, 25.771972231518866], [-80.19350930392027, 25.77189023155065], [-80.1935133046943, 25.771777231063407], [-80.19353030463401, 25.77165323160402], [-80.19353730486914, 25.771612231395967], [-80.19353930478181, 25.771467231689535], [-80.19354230666715, 25.77094523112383], [-80.19354530654633, 25.770896231117817], [-80.19354930807495, 25.770269231612946], [-80.19355230917267, 25.769867231136676], [-80.19354131054321, 25.7695722318033], [-80.19374431144863, 25.76933523186648], [-80.19497731262435, 25.76889323662137], [-80.19564031289794, 25.768780238299986], [-80.19568731269807, 25.768780238984544], [-80.19627331344489, 25.7687062409115], [-80.19750731283332, 25.768803244945115], [-80.19765931264199, 25.768857245522703], [-80.19824931113713, 25.769402247467468], [-80.1990263098048, 25.77017825027243], [-80.19930930806659, 25.7704652511488], [-80.1994933081846, 25.77066025215393], [-80.19965230764008, 25.77080325270924], [-80.19978430731554, 25.771048253177568], [-80.19979030654788, 25.771066253439432], [-80.2005773013564, 25.77303825650097], [-80.20083429920851, 25.773684256705575], [-80.20122429779465, 25.7741972588056], [-80.20151429762028, 25.774566259178034], [-80.20332329270133, 25.77635526562943], [-80.2048002890722, 25.777425270682574], [-80.20627628762824, 25.777977276362734], [-80.20648328819586, 25.77805527699885], [-80.20691428676194, 25.77828827865807], [-80.20886528426628, 25.779300285247448], [-80.20930028413454, 25.779525287075955], [-80.20993728171217, 25.780165289223653], [-80.21036728030971, 25.78059729024193], [-80.21200227766384, 25.781626296442838], [-80.21468227545745, 25.782561306199458], [-80.21463827447293, 25.782884305634173], [-80.21461527355214, 25.78322630549435], [-80.21456127150284, 25.78402530582966], [-80.2145762710074, 25.78416630519389], [-80.214674268761, 25.784827306315428], [-80.21479426772008, 25.785245306794486], [-80.21482826744136, 25.785380306745175], [-80.21433026640142, 25.785557304365796], [-80.21408626631262, 25.785644303607462], [-80.21335626584919, 25.785936301278326], [-80.2133072652886, 25.78596030137353], [-80.21275726442332, 25.78623429914391], [-80.21212426367757, 25.78654929681608], [-80.21096826259416, 25.787131293380416], [-80.210801261791, 25.787215292602774], [-80.21029126129292, 25.787463291142483], [-80.20990326084195, 25.78773828989032], [-80.20983726029023, 25.78777628953309], [-80.20910225898842, 25.788058286459638], [-80.20890725890007, 25.78813428627701], [-80.20864625926737, 25.78823628508625], [-80.2084282587249, 25.788300284752893], [-80.20785025804908, 25.788464282037992], [-80.20743025771154, 25.788550280636663], [-80.20695125803995, 25.788616279489975], [-80.20679025776568, 25.788621278791947], [-80.20610925759868, 25.78866427581094], [-80.20579325782334, 25.788670274799777], [-80.20567225802607, 25.788669274704766], [-80.20555025751489, 25.788669274595815], [-80.20463525754161, 25.788678270858657], [-80.20417925782812, 25.788698269924634], [-80.20426525736657, 25.788879269460335], [-80.20435225700169, 25.789092269739644], [-80.20460788246069, 25.789564811223308], [-80.20467008031348, 25.78967978874095], [-80.20480125454635, 25.78992227162242], [-80.20509225215746, 25.790584273230525], [-80.20521725116788, 25.79096527330087], [-80.20530724979784, 25.79129827319517], [-80.20533724916369, 25.7915802740968], [-80.20536724769698, 25.792123273390747], [-80.20547424539411, 25.792928273884055], [-80.20549324318986, 25.793707274743376], [-80.20550324232948, 25.794124274830587], [-80.20552124019487, 25.794849274531032], [-80.20553223900515, 25.795239274558266], [-80.20555180879768, 25.796046944635254], [-80.20555458727715, 25.79616159624651], [-80.2055772342178, 25.797096274913283], [-80.20560023129002, 25.798041275362188], [-80.20562122890546, 25.7988802748528], [-80.20563822685754, 25.79957227502318], [-80.20564722572767, 25.799911275067398], [-80.20569132322986, 25.800581585398806], [-80.20570722302807, 25.800823275157956], [-80.20574554942176, 25.802639607714475], [-80.20574621781856, 25.802671275365576], [-80.20584021768708, 25.8026722762249], [-80.20584721498814, 25.803658276235527], [-80.20591021047098, 25.805305276105184], [-80.20593204446214, 25.805764472188343], [-80.20594320850476, 25.805999276687633], [-80.20595420810388, 25.80627027646219], [-80.20595920755855, 25.80641127660597], [-80.20595920728753, 25.806673276466064], [-80.20597911333357, 25.807174758206024], [-80.20605919981776, 25.80919227734884], [-80.20606419876842, 25.809543277479698], [-80.20629719866417, 25.809544278053245], [-80.20645619827108, 25.809584278518628], [-80.20656719809584, 25.80962227925277], [-80.20659619841481, 25.80963827899111], [-80.20695619741728, 25.809864280393537], [-80.20717819787455, 25.80995528122911], [-80.20756419739139, 25.810028282455175], [-80.2100091973524, 25.80999329146942], [-80.21041719686701, 25.809953292068094], [-80.21120619645508, 25.80995729540479], [-80.21129819726139, 25.80995129549407], [-80.21163319670762, 25.809931296457414], [-80.21167019505994, 25.81075329688013], [-80.21168519204453, 25.81148529672515], [-80.2117131901904, 25.81216229735262], [-80.21172019003879, 25.812383297210623], [-80.2117301894727, 25.81255429760698], [-80.21418018914217, 25.812436305690746], [-80.21565518941887, 25.812397310558126], [-80.21578618943751, 25.812394311052596], [-80.21724318897212, 25.812402316422006], [-80.21842918888956, 25.812378321008044], [-80.2191461889256, 25.812378323523617], [-80.2207021891257, 25.812325328488964], [-80.22402018925666, 25.812210339856055], [-80.2259301889316, 25.812210346518583], [-80.2265241887159, 25.81218834874144], [-80.22810183125198, 25.81213440022849], [-80.22810459675654, 25.812163920741746]]]}}]}